[{"OBJECT_NAME":"DMSP 5D-3 F18 (USA 210)","OBJECT_ID":"2009-057A","EPOCH":"2026-03-09T22:11:19.578624","MEAN_MOTION":14.14835918,"ECCENTRICITY":0.00111332,"INCLINATION":98.8964,"RA_OF_ASC_NODE":49.953,"ARG_OF_PERICENTER":167.567,"MEAN_ANOMALY":192.578,"EPHEMERIS_TYPE":0,"CLASSIFICATION_TYPE":"U","NORAD_CAT_ID":35951,"ELEMENT_SET_NO":999,"REV_AT_EPOCH":84555,"BSTAR":0.0001892164,"MEAN_MOTION_DOT":3.21e-6,"MEAN_MOTION_DDOT":0},{"OBJECT_NAME":"METEOR 1-19","OBJECT_ID":"1974-083A","EPOCH":"2026-03-09T23:04:36.942816","MEAN_MOTION":14.10556122,"ECCENTRICITY":0.00305665,"INCLINATION":81.1863,"RA_OF_ASC_NODE":235.1238,"ARG_OF_PERICENTER":3.7886,"MEAN_ANOMALY":356.351,"EPHEMERIS_TYPE":0,"CLASSIFICATION_TYPE":"U","NORAD_CAT_ID":7490,"ELEMENT_SET_NO":999,"REV_AT_EPOCH":64089,"BSTAR":5.040932e-6,"MEAN_MOTION_DOT":2.1e-7,"MEAN_MOTION_DDOT":0}]
